{
  "type": "FeatureCollection",
  "features": [
    {
      "type": "Feature",
      "properties": {
        "norad_id": 40794,
        "name": "COSMOS 2251 DEB",
        "group": "cosmos-2251-debris",
        "lat": -73.89688981345418,
        "lon": 11.306507057126451,
        "alt_km": 585.8220292433643,
        "timestamp": "2025-12-21T09:37:23.053283+00:00",
        "meta_object_name": "COSMOS 2251 DEB",
        "meta_object_id": "1993-036BVX",
        "meta_epoch": "2025-12-13T15:37:41.141568",
        "meta_mean_motion": 14.93159868,
        "meta_eccentricity": 0.00107848,
        "meta_inclination": 73.9763,
        "meta_ra_of_asc_node": 122.399,
        "meta_arg_of_pericenter": 261.0962,
        "meta_mean_anomaly": 116.104,
        "meta_ephemeris_type": 0,
        "meta_classification_type": "U",
        "meta_norad_cat_id": 40794,
        "meta_element_set_no": 999,
        "meta_rev_at_epoch": 61938,
        "meta_bstar": 0.0047306735,
        "meta_mean_motion_dot": 0.00049759,
        "meta_mean_motion_ddot": 0,
        "tle_line1": "1 40794U 93036BVX 25347.65117062  .00049759  00000+0  47307-2 0  9990",
        "tle_line2": "2 40794  73.9763 122.3990 0010784 261.0962 116.1040 14.93159868619387"
      },
      "geometry": {
        "type": "Point",
        "coordinates": [
          11.306507057126451,
          -73.89688981345418
        ]
      }
    },
    {
      "type": "Feature",
      "properties": {
        "norad_id": 40796,
        "name": "COSMOS 2251 DEB",
        "group": "cosmos-2251-debris",
        "lat": -53.58151677742795,
        "lon": 102.18895643174369,
        "alt_km": 601.567384377171,
        "timestamp": "2025-12-21T09:37:23.053294+00:00",
        "meta_object_name": "COSMOS 2251 DEB",
        "meta_object_id": "1993-036BVZ",
        "meta_epoch": "2025-12-18T03:16:26.396832",
        "meta_mean_motion": 14.81774084,
        "meta_eccentricity": 0.00561198,
        "meta_inclination": 74.0119,
        "meta_ra_of_asc_node": 131.5134,
        "meta_arg_of_pericenter": 267.2185,
        "meta_mean_anomaly": 268.2913,
        "meta_ephemeris_type": 0,
        "meta_classification_type": "U",
        "meta_norad_cat_id": 40796,
        "meta_element_set_no": 999,
        "meta_rev_at_epoch": 76238,
        "meta_bstar": 0.00073722049,
        "meta_mean_motion_dot": 5.947e-05,
        "meta_mean_motion_ddot": 0,
        "tle_line1": "1 40796U 93036BVZ 25352.13641663  .00005947  00000+0  73722-3 0  9992",
        "tle_line2": "2 40796  74.0119 131.5134 0056119 267.2185 268.2913 14.81774084762382"
      },
      "geometry": {
        "type": "Point",
        "coordinates": [
          102.18895643174369,
          -53.58151677742795
        ]
      }
    },
    {
      "type": "Feature",
      "properties": {
        "norad_id": 40797,
        "name": "COSMOS 2251 DEB",
        "group": "cosmos-2251-debris",
        "lat": -33.240895021891795,
        "lon": -91.84138298682439,
        "alt_km": 570.8554090544185,
        "timestamp": "2025-12-21T09:37:23.053304+00:00",
        "meta_object_name": "COSMOS 2251 DEB",
        "meta_object_id": "1993-036BWA",
        "meta_epoch": "2025-12-19T23:18:49.497408",
        "meta_mean_motion": 15.11460635,
        "meta_eccentricity": 0.0072123,
        "meta_inclination": 73.9226,
        "meta_ra_of_asc_node": 80.2397,
        "meta_arg_of_pericenter": 350.3044,
        "meta_mean_anomaly": 9.675,
        "meta_ephemeris_type": 0,
        "meta_classification_type": "U",
        "meta_norad_cat_id": 40797,
        "meta_element_set_no": 999,
        "meta_rev_at_epoch": 64753,
        "meta_bstar": 0.0004453,
        "meta_mean_motion_dot": 7.981e-05,
        "meta_mean_motion_ddot": 0,
        "tle_line1": "1 40797U 93036BWA 25353.97140622  .00007981  00000+0  44530-3 0  9990",
        "tle_line2": "2 40797  73.9226  80.2397 0072123 350.3044   9.6750 15.11460635647535"
      },
      "geometry": {
        "type": "Point",
        "coordinates": [
          -91.84138298682439,
          -33.240895021891795
        ]
      }
    },
    {
      "type": "Feature",
      "properties": {
        "norad_id": 40799,
        "name": "COSMOS 2251 DEB",
        "group": "cosmos-2251-debris",
        "lat": 52.46805880376213,
        "lon": -121.31270521730089,
        "alt_km": 651.2242649661457,
        "timestamp": "2025-12-21T09:37:23.053314+00:00",
        "meta_object_name": "COSMOS 2251 DEB",
        "meta_object_id": "1993-036BWC",
        "meta_epoch": "2025-12-19T23:22:48.331200",
        "meta_mean_motion": 14.96721244,
        "meta_eccentricity": 0.0119254,
        "meta_inclination": 73.9272,
        "meta_ra_of_asc_node": 83.6344,
        "meta_arg_of_pericenter": 324.0536,
        "meta_mean_anomaly": 35.2666,
        "meta_ephemeris_type": 0,
        "meta_classification_type": "U",
        "meta_norad_cat_id": 40799,
        "meta_element_set_no": 999,
        "meta_rev_at_epoch": 50085,
        "meta_bstar": 0.00020522528,
        "meta_mean_motion_dot": 2.662e-05,
        "meta_mean_motion_ddot": 0,
        "tle_line1": "1 40799U 93036BWC 25353.97417050  .00002662  00000+0  20523-3 0  9991",
        "tle_line2": "2 40799  73.9272  83.6344 0119254 324.0536  35.2666 14.96721244500850"
      },
      "geometry": {
        "type": "Point",
        "coordinates": [
          -121.31270521730089,
          52.46805880376213
        ]
      }
    },
    {
      "type": "Feature",
      "properties": {
        "norad_id": 40802,
        "name": "COSMOS 2251 DEB",
        "group": "cosmos-2251-debris",
        "lat": -58.19745422456445,
        "lon": 108.5348835398204,
        "alt_km": 624.427702317772,
        "timestamp": "2025-12-21T09:37:23.053324+00:00",
        "meta_object_name": "COSMOS 2251 DEB",
        "meta_object_id": "1993-036BWF",
        "meta_epoch": "2025-12-20T16:01:50.950848",
        "meta_mean_motion": 14.77686845,
        "meta_eccentricity": 0.00629069,
        "meta_inclination": 74.0403,
        "meta_ra_of_asc_node": 137.4571,
        "meta_arg_of_pericenter": 234.6618,
        "meta_mean_anomaly": 124.8667,
        "meta_ephemeris_type": 0,
        "meta_classification_type": "U",
        "meta_norad_cat_id": 40802,
        "meta_element_set_no": 999,
        "meta_rev_at_epoch": 64526,
        "meta_bstar": 0.0005156342,
        "meta_mean_motion_dot": 3.783e-05,
        "meta_mean_motion_ddot": 0,
        "tle_line1": "1 40802U 93036BWF 25354.66795082  .00003783  00000+0  51563-3 0  9990",
        "tle_line2": "2 40802  74.0403 137.4571 0062906 234.6618 124.8667 14.77686845645268"
      },
      "geometry": {
        "type": "Point",
        "coordinates": [
          108.5348835398204,
          -58.19745422456445
        ]
      }
    },
    {
      "type": "Feature",
      "properties": {
        "norad_id": 40803,
        "name": "COSMOS 2251 DEB",
        "group": "cosmos-2251-debris",
        "lat": 51.77896083616016,
        "lon": 56.91466129196427,
        "alt_km": 737.7600435873919,
        "timestamp": "2025-12-21T09:37:23.053334+00:00",
        "meta_object_name": "COSMOS 2251 DEB",
        "meta_object_id": "1993-036BWG",
        "meta_epoch": "2025-12-18T13:33:58.856256",
        "meta_mean_motion": 14.51832386,
        "meta_eccentricity": 0.00340447,
        "meta_inclination": 74.0153,
        "meta_ra_of_asc_node": 40.9148,
        "meta_arg_of_pericenter": 256.5349,
        "meta_mean_anomaly": 103.2017,
        "meta_ephemeris_type": 0,
        "meta_classification_type": "U",
        "meta_norad_cat_id": 40803,
        "meta_element_set_no": 999,
        "meta_rev_at_epoch": 58837,
        "meta_bstar": 0.00023751295,
        "meta_mean_motion_dot": 9.34e-06,
        "meta_mean_motion_ddot": 0,
        "tle_line1": "1 40803U 93036BWG 25352.56526454  .00000934  00000+0  23751-3 0  9996",
        "tle_line2": "2 40803  74.0153  40.9148 0034044 256.5349 103.2017 14.51832386588378"
      },
      "geometry": {
        "type": "Point",
        "coordinates": [
          56.91466129196427,
          51.77896083616016
        ]
      }
    },
    {
      "type": "Feature",
      "properties": {
        "norad_id": 40808,
        "name": "COSMOS 2251 DEB",
        "group": "cosmos-2251-debris",
        "lat": 71.48166726128736,
        "lon": -109.92965876931719,
        "alt_km": 658.9055373251431,
        "timestamp": "2025-12-21T09:37:23.053344+00:00",
        "meta_object_name": "COSMOS 2251 DEB",
        "meta_object_id": "1993-036BWM",
        "meta_epoch": "2025-12-21T03:26:49.540416",
        "meta_mean_motion": 14.67611065,
        "meta_eccentricity": 0.0008463,
        "meta_inclination": 74.0421,
        "meta_ra_of_asc_node": 129.2468,
        "meta_arg_of_pericenter": 164.8928,
        "meta_mean_anomaly": 15.6527,
        "meta_ephemeris_type": 0,
        "meta_classification_type": "U",
        "meta_norad_cat_id": 40808,
        "meta_element_set_no": 999,
        "meta_rev_at_epoch": 63742,
        "meta_bstar": 0.0010662,
        "meta_mean_motion_dot": 6.035e-05,
        "meta_mean_motion_ddot": 0,
        "tle_line1": "1 40808U 93036BWM 25355.14362894  .00006035  00000+0  10662-2 0  9998",
        "tle_line2": "2 40808  74.0421 129.2468 0008463 164.8928  15.6527 14.67611065637426"
      },
      "geometry": {
        "type": "Point",
        "coordinates": [
          -109.92965876931719,
          71.48166726128736
        ]
      }
    }
  ]
}